{
"type": "FeatureCollection",
"name": "sql_statement",
"crs": { "type": "name", "properties": { "name": "urn:ogc:def:crs:OGC:1.3:CRS84" } },
"features": [
{ "type": "Feature", "properties": { "DataHora": "2024/12/06 17:41:00", "Satelite": "AQUA_M-T", "Pais": "Brasil", "Estado": "TOCANTINS", "Municipio": "CASEARA", "Bioma": "Cerrado", "DiaSemChuva": 0, "Precipitacao": 0.0, "RiscoFogo": 0.1, "FRP": 9.3, "Latitude": -9.67527, "Longitude": -49.92622 }, "geometry": { "type": "Point", "coordinates": [ -49.92622, -9.67527 ] } },
{ "type": "Feature", "properties": { "DataHora": "2025/02/14 17:58:00", "Satelite": "AQUA_M-T", "Pais": "Brasil", "Estado": "TOCANTINS", "Municipio": "CASEARA", "Bioma": "Cerrado", "DiaSemChuva": 0, "Precipitacao": 1.8, "RiscoFogo": 0.0, "FRP": 9.4, "Latitude": -9.32528, "Longitude": -49.7753 }, "geometry": { "type": "Point", "coordinates": [ -49.7753, -9.32528 ] } },
{ "type": "Feature", "properties": { "DataHora": "2025/02/24 17:58:00", "Satelite": "AQUA_M-T", "Pais": "Brasil", "Estado": "TOCANTINS", "Municipio": "CASEARA", "Bioma": "Cerrado", "DiaSemChuva": 2, "Precipitacao": 23.3, "RiscoFogo": 0.0, "FRP": 8.3, "Latitude": -9.31508, "Longitude": -49.83232 }, "geometry": { "type": "Point", "coordinates": [ -49.83232, -9.31508 ] } },
{ "type": "Feature", "properties": { "DataHora": "2025/02/24 17:58:00", "Satelite": "AQUA_M-T", "Pais": "Brasil", "Estado": "TOCANTINS", "Municipio": "CASEARA", "Bioma": "Cerrado", "DiaSemChuva": 2, "Precipitacao": 23.66, "RiscoFogo": 0.0, "FRP": 6.0, "Latitude": -9.31639, "Longitude": -49.84122 }, "geometry": { "type": "Point", "coordinates": [ -49.84122, -9.31639 ] } },
{ "type": "Feature", "properties": { "DataHora": "2025/03/13 17:37:00", "Satelite": "AQUA_M-T", "Pais": "Brasil", "Estado": "TOCANTINS", "Municipio": "CASEARA", "Bioma": "Cerrado", "DiaSemChuva": 1, "Precipitacao": 4.91, "RiscoFogo": 0.03, "FRP": 22.0, "Latitude": -9.43806, "Longitude": -49.79487 }, "geometry": { "type": "Point", "coordinates": [ -49.79487, -9.43806 ] } },
{ "type": "Feature", "properties": { "DataHora": "2025/03/16 17:56:00", "Satelite": "AQUA_M-T", "Pais": "Brasil", "Estado": "TOCANTINS", "Municipio": "CASEARA", "Bioma": "Cerrado", "DiaSemChuva": 0, "Precipitacao": 3.09, "RiscoFogo": 0.01, "FRP": 4.5, "Latitude": -9.61406, "Longitude": -49.97952 }, "geometry": { "type": "Point", "coordinates": [ -49.97952, -9.61406 ] } },
{ "type": "Feature", "properties": { "DataHora": "2025/03/18 17:37:00", "Satelite": "AQUA_M-T", "Pais": "Brasil", "Estado": "TOCANTINS", "Municipio": "CASEARA", "Bioma": "Cerrado", "DiaSemChuva": 0, "Precipitacao": 0.8, "RiscoFogo": 0.01, "FRP": 19.8, "Latitude": -9.35682, "Longitude": -49.87437 }, "geometry": { "type": "Point", "coordinates": [ -49.87437, -9.35682 ] } },
{ "type": "Feature", "properties": { "DataHora": "2025/03/24 18:15:00", "Satelite": "AQUA_M-T", "Pais": "Brasil", "Estado": "TOCANTINS", "Municipio": "CASEARA", "Bioma": "Cerrado", "DiaSemChuva": 0, "Precipitacao": 6.35, "RiscoFogo": 0.0, "FRP": 12.7, "Latitude": -9.30273, "Longitude": -49.78675 }, "geometry": { "type": "Point", "coordinates": [ -49.78675, -9.30273 ] } },
{ "type": "Feature", "properties": { "DataHora": "2025/03/29 18:13:00", "Satelite": "AQUA_M-T", "Pais": "Brasil", "Estado": "TOCANTINS", "Municipio": "CASEARA", "Bioma": "Cerrado", "DiaSemChuva": 0, "Precipitacao": 0.2, "RiscoFogo": 0.02, "FRP": 14.1, "Latitude": -9.31119, "Longitude": -49.84258 }, "geometry": { "type": "Point", "coordinates": [ -49.84258, -9.31119 ] } },
{ "type": "Feature", "properties": { "DataHora": "2025/04/30 17:47:00", "Satelite": "AQUA_M-T", "Pais": "Brasil", "Estado": "TOCANTINS", "Municipio": "CASEARA", "Bioma": "Cerrado", "DiaSemChuva": 2, "Precipitacao": 0.0, "RiscoFogo": 0.29, "FRP": 18.8, "Latitude": -9.42007, "Longitude": -49.76763 }, "geometry": { "type": "Point", "coordinates": [ -49.76763, -9.42007 ] } },
{ "type": "Feature", "properties": { "DataHora": "2025/05/10 17:43:00", "Satelite": "AQUA_M-T", "Pais": "Brasil", "Estado": "TOCANTINS", "Municipio": "CASEARA", "Bioma": "Cerrado", "DiaSemChuva": 8, "Precipitacao": 0.0, "RiscoFogo": 0.48, "FRP": 17.1, "Latitude": -9.19254, "Longitude": -49.83799 }, "geometry": { "type": "Point", "coordinates": [ -49.83799, -9.19254 ] } },
{ "type": "Feature", "properties": { "DataHora": "2025/06/05 18:11:00", "Satelite": "AQUA_M-T", "Pais": "Brasil", "Estado": "TOCANTINS", "Municipio": "CASEARA", "Bioma": "Cerrado", "DiaSemChuva": 28, "Precipitacao": 0.0, "RiscoFogo": 1.0, "FRP": 15.5, "Latitude": -9.56537, "Longitude": -49.96984 }, "geometry": { "type": "Point", "coordinates": [ -49.96984, -9.56537 ] } },
{ "type": "Feature", "properties": { "DataHora": "2025/06/05 18:11:00", "Satelite": "AQUA_M-T", "Pais": "Brasil", "Estado": "TOCANTINS", "Municipio": "CASEARA", "Bioma": "Cerrado", "DiaSemChuva": 29, "Precipitacao": 0.0, "RiscoFogo": 1.0, "FRP": 6.5, "Latitude": -9.56676, "Longitude": -49.97907 }, "geometry": { "type": "Point", "coordinates": [ -49.97907, -9.56676 ] } },
{ "type": "Feature", "properties": { "DataHora": "2025/06/07 17:52:00", "Satelite": "AQUA_M-T", "Pais": "Brasil", "Estado": "TOCANTINS", "Municipio": "CASEARA", "Bioma": "Cerrado", "DiaSemChuva": 28, "Precipitacao": 0.0, "RiscoFogo": 0.75, "FRP": 14.8, "Latitude": -9.5606, "Longitude": -49.95712 }, "geometry": { "type": "Point", "coordinates": [ -49.95712, -9.5606 ] } },
{ "type": "Feature", "properties": { "DataHora": "2025/06/07 17:52:00", "Satelite": "AQUA_M-T", "Pais": "Brasil", "Estado": "TOCANTINS", "Municipio": "CASEARA", "Bioma": "Cerrado", "DiaSemChuva": 36, "Precipitacao": 0.0, "RiscoFogo": 0.99, "FRP": 17.6, "Latitude": -9.18745, "Longitude": -49.84003 }, "geometry": { "type": "Point", "coordinates": [ -49.84003, -9.18745 ] } },
{ "type": "Feature", "properties": { "DataHora": "2025/07/23 18:09:00", "Satelite": "AQUA_M-T", "Pais": "Brasil", "Estado": "TOCANTINS", "Municipio": "CASEARA", "Bioma": "Cerrado", "DiaSemChuva": 80, "Precipitacao": 0.0, "RiscoFogo": 1.0, "FRP": 12.8, "Latitude": -9.10797, "Longitude": -49.80115 }, "geometry": { "type": "Point", "coordinates": [ -49.80115, -9.10797 ] } },
{ "type": "Feature", "properties": { "DataHora": "2025/09/10 18:43:00", "Satelite": "AQUA_M-T", "Pais": "Brasil", "Estado": "TOCANTINS", "Municipio": "CASEARA", "Bioma": "Cerrado", "DiaSemChuva": 118, "Precipitacao": 0.0, "RiscoFogo": 1.0, "FRP": 81.7, "Latitude": -9.08949, "Longitude": -49.84554 }, "geometry": { "type": "Point", "coordinates": [ -49.84554, -9.08949 ] } },
{ "type": "Feature", "properties": { "DataHora": "2025/09/10 18:43:00", "Satelite": "AQUA_M-T", "Pais": "Brasil", "Estado": "TOCANTINS", "Municipio": "CASEARA", "Bioma": "Cerrado", "DiaSemChuva": 111, "Precipitacao": 0.0, "RiscoFogo": 1.0, "FRP": 86.2, "Latitude": -9.09879, "Longitude": -49.83092 }, "geometry": { "type": "Point", "coordinates": [ -49.83092, -9.09879 ] } },
{ "type": "Feature", "properties": { "DataHora": "2025/09/10 18:43:00", "Satelite": "AQUA_M-T", "Pais": "Brasil", "Estado": "TOCANTINS", "Municipio": "CASEARA", "Bioma": "Cerrado", "DiaSemChuva": 112, "Precipitacao": 0.0, "RiscoFogo": 1.0, "FRP": 78.3, "Latitude": -9.08608, "Longitude": -49.82565 }, "geometry": { "type": "Point", "coordinates": [ -49.82565, -9.08608 ] } },
{ "type": "Feature", "properties": { "DataHora": "2025/09/10 18:43:00", "Satelite": "AQUA_M-T", "Pais": "Brasil", "Estado": "TOCANTINS", "Municipio": "CASEARA", "Bioma": "Cerrado", "DiaSemChuva": 114, "Precipitacao": 0.0, "RiscoFogo": 1.0, "FRP": 53.8, "Latitude": -9.08602, "Longitude": -49.83308 }, "geometry": { "type": "Point", "coordinates": [ -49.83308, -9.08602 ] } },
{ "type": "Feature", "properties": { "DataHora": "2025/09/10 18:43:00", "Satelite": "AQUA_M-T", "Pais": "Brasil", "Estado": "TOCANTINS", "Municipio": "CASEARA", "Bioma": "Cerrado", "DiaSemChuva": 119, "Precipitacao": 0.0, "RiscoFogo": 1.0, "FRP": 73.5, "Latitude": -9.10202, "Longitude": -49.85082 }, "geometry": { "type": "Point", "coordinates": [ -49.85082, -9.10202 ] } },
{ "type": "Feature", "properties": { "DataHora": "2025/09/11 17:43:00", "Satelite": "AQUA_M-T", "Pais": "Brasil", "Estado": "TOCANTINS", "Municipio": "CASEARA", "Bioma": "Cerrado", "DiaSemChuva": 116, "Precipitacao": 0.0, "RiscoFogo": 1.0, "FRP": 49.2, "Latitude": -9.09525, "Longitude": -49.84052 }, "geometry": { "type": "Point", "coordinates": [ -49.84052, -9.09525 ] } },
{ "type": "Feature", "properties": { "DataHora": "2025/09/11 17:43:00", "Satelite": "AQUA_M-T", "Pais": "Brasil", "Estado": "TOCANTINS", "Municipio": "CASEARA", "Bioma": "Cerrado", "DiaSemChuva": 116, "Precipitacao": 0.0, "RiscoFogo": 1.0, "FRP": 102.2, "Latitude": -9.11241, "Longitude": -49.84297 }, "geometry": { "type": "Point", "coordinates": [ -49.84297, -9.11241 ] } },
{ "type": "Feature", "properties": { "DataHora": "2025/09/11 17:43:00", "Satelite": "AQUA_M-T", "Pais": "Brasil", "Estado": "TOCANTINS", "Municipio": "CASEARA", "Bioma": "Cerrado", "DiaSemChuva": 114, "Precipitacao": 0.0, "RiscoFogo": 1.0, "FRP": 114.8, "Latitude": -9.11034, "Longitude": -49.83857 }, "geometry": { "type": "Point", "coordinates": [ -49.83857, -9.11034 ] } },
{ "type": "Feature", "properties": { "DataHora": "2025/09/22 18:17:00", "Satelite": "AQUA_M-T", "Pais": "Brasil", "Estado": "TOCANTINS", "Municipio": "CASEARA", "Bioma": "Cerrado", "DiaSemChuva": 3, "Precipitacao": 0.31, "RiscoFogo": 1.0, "FRP": 44.8, "Latitude": -9.33027, "Longitude": -49.7809 }, "geometry": { "type": "Point", "coordinates": [ -49.7809, -9.33027 ] } },
{ "type": "Feature", "properties": { "DataHora": "2025/09/27 18:13:00", "Satelite": "AQUA_M-T", "Pais": "Brasil", "Estado": "TOCANTINS", "Municipio": "CASEARA", "Bioma": "Cerrado", "DiaSemChuva": 2, "Precipitacao": 0.0, "RiscoFogo": 0.41, "FRP": 22.4, "Latitude": -9.31805, "Longitude": -49.81957 }, "geometry": { "type": "Point", "coordinates": [ -49.81957, -9.31805 ] } },
{ "type": "Feature", "properties": { "DataHora": "2025/09/29 17:52:00", "Satelite": "AQUA_M-T", "Pais": "Brasil", "Estado": "TOCANTINS", "Municipio": "CASEARA", "Bioma": "Cerrado", "DiaSemChuva": 4, "Precipitacao": 0.0, "RiscoFogo": 0.88, "FRP": 43.1, "Latitude": -9.32482, "Longitude": -49.83878 }, "geometry": { "type": "Point", "coordinates": [ -49.83878, -9.32482 ] } },
{ "type": "Feature", "properties": { "DataHora": "2025/09/29 17:52:00", "Satelite": "AQUA_M-T", "Pais": "Brasil", "Estado": "TOCANTINS", "Municipio": "CASEARA", "Bioma": "Cerrado", "DiaSemChuva": 4, "Precipitacao": 0.0, "RiscoFogo": 1.0, "FRP": 54.7, "Latitude": -9.33725, "Longitude": -49.8524 }, "geometry": { "type": "Point", "coordinates": [ -49.8524, -9.33725 ] } },
{ "type": "Feature", "properties": { "DataHora": "2025/09/29 17:52:00", "Satelite": "AQUA_M-T", "Pais": "Brasil", "Estado": "TOCANTINS", "Municipio": "CASEARA", "Bioma": "Cerrado", "DiaSemChuva": 4, "Precipitacao": 0.0, "RiscoFogo": 1.0, "FRP": 67.2, "Latitude": -9.38565, "Longitude": -49.91325 }, "geometry": { "type": "Point", "coordinates": [ -49.91325, -9.38565 ] } },
{ "type": "Feature", "properties": { "DataHora": "2025/09/29 17:52:00", "Satelite": "AQUA_M-T", "Pais": "Brasil", "Estado": "TOCANTINS", "Municipio": "CASEARA", "Bioma": "Cerrado", "DiaSemChuva": 4, "Precipitacao": 0.0, "RiscoFogo": 1.0, "FRP": 60.6, "Latitude": -9.39904, "Longitude": -49.9114 }, "geometry": { "type": "Point", "coordinates": [ -49.9114, -9.39904 ] } },
{ "type": "Feature", "properties": { "DataHora": "2025/09/30 18:30:00", "Satelite": "AQUA_M-T", "Pais": "Brasil", "Estado": "TOCANTINS", "Municipio": "CASEARA", "Bioma": "Cerrado", "DiaSemChuva": 6, "Precipitacao": 0.0, "RiscoFogo": 1.0, "FRP": 22.5, "Latitude": -9.54066, "Longitude": -49.92119 }, "geometry": { "type": "Point", "coordinates": [ -49.92119, -9.54066 ] } },
{ "type": "Feature", "properties": { "DataHora": "2025/09/30 18:30:00", "Satelite": "AQUA_M-T", "Pais": "Brasil", "Estado": "TOCANTINS", "Municipio": "CASEARA", "Bioma": "Cerrado", "DiaSemChuva": 6, "Precipitacao": 0.0, "RiscoFogo": 1.0, "FRP": 25.2, "Latitude": -9.53903, "Longitude": -49.91063 }, "geometry": { "type": "Point", "coordinates": [ -49.91063, -9.53903 ] } },
{ "type": "Feature", "properties": { "DataHora": "2025/09/30 18:30:00", "Satelite": "AQUA_M-T", "Pais": "Brasil", "Estado": "TOCANTINS", "Municipio": "CASEARA", "Bioma": "Cerrado", "DiaSemChuva": 6, "Precipitacao": 0.0, "RiscoFogo": 1.0, "FRP": 25.2, "Latitude": -9.53903, "Longitude": -49.91064 }, "geometry": { "type": "Point", "coordinates": [ -49.91064, -9.53903 ] } },
{ "type": "Feature", "properties": { "DataHora": "2025/10/04 17:49:00", "Satelite": "AQUA_M-T", "Pais": "Brasil", "Estado": "TOCANTINS", "Municipio": "CASEARA", "Bioma": "Cerrado", "DiaSemChuva": 10, "Precipitacao": 0.0, "RiscoFogo": 1.0, "FRP": 98.1, "Latitude": -9.48357, "Longitude": -49.84319 }, "geometry": { "type": "Point", "coordinates": [ -49.84319, -9.48357 ] } },
{ "type": "Feature", "properties": { "DataHora": "2025/10/04 17:49:00", "Satelite": "AQUA_M-T", "Pais": "Brasil", "Estado": "TOCANTINS", "Municipio": "CASEARA", "Bioma": "Cerrado", "DiaSemChuva": 10, "Precipitacao": 0.0, "RiscoFogo": 1.0, "FRP": 79.8, "Latitude": -9.47092, "Longitude": -49.83977 }, "geometry": { "type": "Point", "coordinates": [ -49.83977, -9.47092 ] } },
{ "type": "Feature", "properties": { "DataHora": "2025/10/04 17:49:00", "Satelite": "AQUA_M-T", "Pais": "Brasil", "Estado": "TOCANTINS", "Municipio": "CASEARA", "Bioma": "Cerrado", "DiaSemChuva": 10, "Precipitacao": 0.0, "RiscoFogo": 1.0, "FRP": 38.8, "Latitude": -9.46911, "Longitude": -49.84491 }, "geometry": { "type": "Point", "coordinates": [ -49.84491, -9.46911 ] } },
{ "type": "Feature", "properties": { "DataHora": "2025/10/07 18:06:00", "Satelite": "AQUA_M-T", "Pais": "Brasil", "Estado": "TOCANTINS", "Municipio": "CASEARA", "Bioma": "Cerrado", "DiaSemChuva": 12, "Precipitacao": 0.66, "RiscoFogo": 1.0, "FRP": 42.5, "Latitude": -9.67161, "Longitude": -49.94274 }, "geometry": { "type": "Point", "coordinates": [ -49.94274, -9.67161 ] } },
{ "type": "Feature", "properties": { "DataHora": "2025/11/07 18:21:00", "Satelite": "AQUA_M-T", "Pais": "Brasil", "Estado": "TOCANTINS", "Municipio": "CASEARA", "Bioma": "Cerrado", "DiaSemChuva": null, "Precipitacao": null, "RiscoFogo": null, "FRP": 5.0, "Latitude": -9.52118, "Longitude": -49.69291 }, "geometry": { "type": "Point", "coordinates": [ -49.69291, -9.52118 ] } }
]
}
